{"type": "FeatureCollection", "features": [{"type": "Feature", "geometry": {"type": "Point", "coordinates": [12.4533865, 41.9032822]}, "properties": {"name": "Vatican City"}}, {"type": "Feature", "geometry": {"type": "Point", "coordinates": [12.4417702, 43.9360958]}, "properties": {"name": "San Marino"}}, {"type": "Feature", "geometry": {"type": "Point", "coordinates": [9.5166695, 47.1337238]}, "properties": {"name": "Vaduz"}}, {"type": "Feature", "geometry": {"type": "Point", "coordinates": [31.1999971, -26.4666675]}, "properties": {"name": "Lobamba"}}, {"type": "Feature", "geometry": {"type": "Point", "coordinates": [6.1300028, 49.6116604]}, "properties": {"name": "Luxembourg"}}, {"type": "Feature", "geometry": {"type": "Point", "coordinates": [158.1499743, 6.9166437]}, "properties": {"name": "Palikir"}}, {"type": "Feature", "geometry": {"type": "Point", "coordinates": [171.3800002, 7.1030043]}, "properties": {"name": "Majuro"}}, {"type": "Feature", "geometry": {"type": "Point", "coordinates": [179.2166471, -8.516652]}, "properties": {"name": "Funafuti"}}, {"type": "Feature", "geometry": {"type": "Point", "coordinates": [134.6265485, 7.4873962]}, "properties": {"name": "Melekeok"}}, {"type": "Feature", "geometry": {"type": "Point", "coordinates": [-9.6525222, 26.1191667]}, "properties": {"name": "Bir Lehlou"}}, {"type": "Feature", "geometry": {"type": "Point", "coordinates": [7.4069132, 43.7396457]}, "properties": {"name": "Monaco"}}, {"type": "Feature", "geometry": {"type": "Point", "coordinates": [173.0175708, 1.3381875]}, "properties": {"name": "Tarawa"}}, {"type": "Feature", "geometry": {"type": "Point", "coordinates": [43.2402441, -11.7041577]}, "properties": {"name": "Moroni"}}, {"type": "Feature", "geometry": {"type": "Point", "coordinates": [1.5265942551654812, 42.5107534941671]}, "properties": {"name": "Andorra"}}, {"type": "Feature", "geometry": {"type": "Point", "coordinates": [-61.5170309, 10.6519971]}, "properties": {"name": "Port-of-Spain"}}, {"type": "Feature", "geometry": {"type": "Point", "coordinates": [30.0585859, -1.9516442]}, "properties": {"name": "Kigali"}}, {"type": "Feature", "geometry": {"type": "Point", "coordinates": [31.1333345, -26.3166508]}, "properties": {"name": "Mbabane"}}, {"type": "Feature", "geometry": {"type": "Point", "coordinates": [31.5800256, 4.8299752]}, "properties": {"name": "Juba"}}, {"type": "Feature", "geometry": {"type": "Point", "coordinates": [4.2699613, 52.0800368]}, "properties": {"name": "The Hague"}}, {"type": "Feature", "geometry": {"type": "Point", "coordinates": [14.514969, 46.0552883]}, "properties": {"name": "Ljubljana"}}, {"type": "Feature", "geometry": {"type": "Point", "coordinates": [17.1169808, 48.1500183]}, "properties": {"name": "Bratislava"}}, {"type": "Feature", "geometry": {"type": "Point", "coordinates": [51.5329679, 25.286556]}, "properties": {"name": "Doha"}}, {"type": "Feature", "geometry": {"type": "Point", "coordinates": [19.2663069, 42.4659725]}, "properties": {"name": "Podgorica"}}, {"type": "Feature", "geometry": {"type": "Point", "coordinates": [79.949993, 6.9000039]}, "properties": {"name": "Sri Jayawardenepura Kotte"}}, {"type": "Feature", "geometry": {"type": "Point", "coordinates": [120.5699426, 16.4299907]}, "properties": {"name": "Baguio"}}, {"type": "Feature", "geometry": {"type": "Point", "coordinates": [35.7500036, -6.1833061]}, "properties": {"name": "Dodoma"}}, {"type": "Feature", "geometry": {"type": "Point", "coordinates": [7.4669755, 46.9166828]}, "properties": {"name": "Bern"}}, {"type": "Feature", "geometry": {"type": "Point", "coordinates": [-13.2000059, 27.1499823]}, "properties": {"name": "Laayoune"}}, {"type": "Feature", "geometry": {"type": "Point", "coordinates": [21.1659843, 42.6667096]}, "properties": {"name": "Pristina"}}, {"type": "Feature", "geometry": {"type": "Point", "coordinates": [-61.387013, 15.3010156]}, "properties": {"name": "Roseau"}}, {"type": "Feature", "geometry": {"type": "Point", "coordinates": [43.1480017, 11.5950145]}, "properties": {"name": "Djibouti"}}, {"type": "Feature", "geometry": {"type": "Point", "coordinates": [101.6950374044619, 2.9325152122667406]}, "properties": {"name": "Putrajaya"}}, {"type": "Feature", "geometry": {"type": "Point", "coordinates": [135.7480521, 35.0319381]}, "properties": {"name": "Kyoto"}}, {"type": "Feature", "geometry": {"type": "Point", "coordinates": [-16.5917015, 13.4538765]}, "properties": {"name": "Banjul"}}, {"type": "Feature", "geometry": {"type": "Point", "coordinates": [21.4334615, 42.0000061]}, "properties": {"name": "Skopje"}}, {"type": "Feature", "geometry": {"type": "Point", "coordinates": [-59.6165267, 13.1020026]}, "properties": {"name": "Bridgetown"}}, {"type": "Feature", "geometry": {"type": "Point", "coordinates": [2.6166255, 6.483311]}, "properties": {"name": "Porto-Novo"}}, {"type": "Feature", "geometry": {"type": "Point", "coordinates": [29.3600061, -3.3760872]}, "properties": {"name": "Bujumbura"}}, {"type": "Feature", "geometry": {"type": "Point", "coordinates": [-61.220236420747256, 13.155756013621149]}, "properties": {"name": "Kingstown"}}, {"type": "Feature", "geometry": {"type": "Point", "coordinates": [-60.99287543435381, 14.007874585883364]}, "properties": {"name": "Castries"}}, {"type": "Feature", "geometry": {"type": "Point", "coordinates": [-62.7170093, 17.3020305]}, "properties": {"name": "Basseterre"}}, {"type": "Feature", "geometry": {"type": "Point", "coordinates": [57.4999939, -20.1666386]}, "properties": {"name": "Port Louis"}}, {"type": "Feature", "geometry": {"type": "Point", "coordinates": [-61.7416432, 12.0526334]}, "properties": {"name": "Saint George's"}}, {"type": "Feature", "geometry": {"type": "Point", "coordinates": [50.5830517, 26.2361363]}, "properties": {"name": "Manama"}}, {"type": "Feature", "geometry": {"type": "Point", "coordinates": [-61.8500338, 17.1180365]}, "properties": {"name": "Saint John's"}}, {"type": "Feature", "geometry": {"type": "Point", "coordinates": [-56.18682337831074, -34.90537638970807]}, "properties": {"name": "Montevideo"}}, {"type": "Feature", "geometry": {"type": "Point", "coordinates": [1.2208113, 6.1338829]}, "properties": {"name": "Lom\u00e9"}}, {"type": "Feature", "geometry": {"type": "Point", "coordinates": [10.1796781, 36.8027781]}, "properties": {"name": "Tunis"}}, {"type": "Feature", "geometry": {"type": "Point", "coordinates": [54.3665934, 24.4666836]}, "properties": {"name": "Abu Dhabi"}}, {"type": "Feature", "geometry": {"type": "Point", "coordinates": [58.3832991, 37.9499949]}, "properties": {"name": "Ashgabat"}}, {"type": "Feature", "geometry": {"type": "Point", "coordinates": [28.2813817, -15.4146984]}, "properties": {"name": "Lusaka"}}, {"type": "Feature", "geometry": {"type": "Point", "coordinates": [31.0427636, -17.8158438]}, "properties": {"name": "Harare"}}, {"type": "Feature", "geometry": {"type": "Point", "coordinates": [125.5794559, -8.5593884]}, "properties": {"name": "Dili"}}, {"type": "Feature", "geometry": {"type": "Point", "coordinates": [168.3166406, -17.7333504]}, "properties": {"name": "Port Vila"}}, {"type": "Feature", "geometry": {"type": "Point", "coordinates": [-87.2194752, 14.1039908]}, "properties": {"name": "Tegucigalpa"}}, {"type": "Feature", "geometry": {"type": "Point", "coordinates": [-58.1670286, 6.8019737]}, "properties": {"name": "Georgetown"}}, {"type": "Feature", "geometry": {"type": "Point", "coordinates": [-21.936546009025054, 64.14345946317033]}, "properties": {"name": "Reykjav\u00edk"}}, {"type": "Feature", "geometry": {"type": "Point", "coordinates": [-72.3379804, 18.5429705]}, "properties": {"name": "Port-au-Prince"}}, {"type": "Feature", "geometry": {"type": "Point", "coordinates": [32.5813777, 0.3186048]}, "properties": {"name": "Kampala"}}, {"type": "Feature", "geometry": {"type": "Point", "coordinates": [-55.1670309, 5.8350301]}, "properties": {"name": "Paramaribo"}}, {"type": "Feature", "geometry": {"type": "Point", "coordinates": [2.1147102, 13.5186518]}, "properties": {"name": "Niamey"}}, {"type": "Feature", "geometry": {"type": "Point", "coordinates": [68.7738794, 38.5600352]}, "properties": {"name": "Dushanbe"}}, {"type": "Feature", "geometry": {"type": "Point", "coordinates": [-57.62583375528301, -25.29067083610963]}, "properties": {"name": "Asunci\u00f3n"}}, {"type": "Feature", "geometry": {"type": "Point", "coordinates": [-86.2704375, 12.1549624]}, "properties": {"name": "Managua"}}, {"type": "Feature", "geometry": {"type": "Point", "coordinates": [-13.2361616, 8.4719573]}, "properties": {"name": "Freetown"}}, {"type": "Feature", "geometry": {"type": "Point", "coordinates": [73.08063017764825, 33.689368483707085]}, "properties": {"name": "Islamabad"}}, {"type": "Feature", "geometry": {"type": "Point", "coordinates": [85.3146964, 27.7186378]}, "properties": {"name": "Kathmandu"}}, {"type": "Feature", "geometry": {"type": "Point", "coordinates": [26.2299129, -29.1199939]}, "properties": {"name": "Bloemfontein"}}, {"type": "Feature", "geometry": {"type": "Point", "coordinates": [28.2274832, -25.7049747]}, "properties": {"name": "Pretoria"}}, {"type": "Feature", "geometry": {"type": "Point", "coordinates": [147.1925036, -9.4647078]}, "properties": {"name": "Port Moresby"}}, {"type": "Feature", "geometry": {"type": "Point", "coordinates": [159.9497657, -9.4379943]}, "properties": {"name": "Honiara"}}, {"type": "Feature", "geometry": {"type": "Point", "coordinates": [-79.534983, 8.969963]}, "properties": {"name": "Panama City"}}, {"type": "Feature", "geometry": {"type": "Point", "coordinates": [-6.8364082, 34.0253073]}, "properties": {"name": "Rabat"}}, {"type": "Feature", "geometry": {"type": "Point", "coordinates": [28.8577111, 47.0050236]}, "properties": {"name": "Chi\u0219in\u0103u"}}, {"type": "Feature", "geometry": {"type": "Point", "coordinates": [32.5872171, -25.9533316]}, "properties": {"name": "Maputo"}}, {"type": "Feature", "geometry": {"type": "Point", "coordinates": [45.3647318, 2.0686272]}, "properties": {"name": "Mogadishu"}}, {"type": "Feature", "geometry": {"type": "Point", "coordinates": [58.37831058458708, 23.58517901476684]}, "properties": {"name": "Muscat"}}, {"type": "Feature", "geometry": {"type": "Point", "coordinates": [79.8577506, 6.9319658]}, "properties": {"name": "Colombo"}}, {"type": "Feature", "geometry": {"type": "Point", "coordinates": [106.9146699, 47.9186193]}, "properties": {"name": "Ulaanbaatar"}}, {"type": "Feature", "geometry": {"type": "Point", "coordinates": [17.0835461, -22.5700061]}, "properties": {"name": "Windhoek"}}, {"type": "Feature", "geometry": {"type": "Point", "coordinates": [7.489505042885861, 9.054620406360845]}, "properties": {"name": "Abuja"}}, {"type": "Feature", "geometry": {"type": "Point", "coordinates": [-15.5983608, 11.8650238]}, "properties": {"name": "Bissau"}}, {"type": "Feature", "geometry": {"type": "Point", "coordinates": [35.9313541, 31.9519711]}, "properties": {"name": "Amman"}}, {"type": "Feature", "geometry": {"type": "Point", "coordinates": [25.3166353, 54.6833663]}, "properties": {"name": "Vilnius"}}, {"type": "Feature", "geometry": {"type": "Point", "coordinates": [24.0999654, 56.9500238]}, "properties": {"name": "Riga"}}, {"type": "Feature", "geometry": {"type": "Point", "coordinates": [74.5832584, 42.8750253]}, "properties": {"name": "Bishkek"}}, {"type": "Feature", "geometry": {"type": "Point", "coordinates": [27.4832731, -29.3166744]}, "properties": {"name": "Maseru"}}, {"type": "Feature", "geometry": {"type": "Point", "coordinates": [47.514678, -18.9146915]}, "properties": {"name": "Antananarivo"}}, {"type": "Feature", "geometry": {"type": "Point", "coordinates": [-78.501997, -0.2130423]}, "properties": {"name": "Quito"}}, {"type": "Feature", "geometry": {"type": "Point", "coordinates": [-84.07881396964633, 9.930370727948475]}, "properties": {"name": "San Jos\u00e9"}}, {"type": "Feature", "geometry": {"type": "Point", "coordinates": [-89.2155758045276, 13.703280259193864]}, "properties": {"name": "San Salvador"}}, {"type": "Feature", "geometry": {"type": "Point", "coordinates": [-76.7674337, 17.9770766]}, "properties": {"name": "Kingston"}}, {"type": "Feature", "geometry": {"type": "Point", "coordinates": [15.0472025, 12.1150424]}, "properties": {"name": "N'Djamena"}}, {"type": "Feature", "geometry": {"type": "Point", "coordinates": [8.7832775, 3.7500153]}, "properties": {"name": "Malabo"}}, {"type": "Feature", "geometry": {"type": "Point", "coordinates": [38.9333235, 15.3333393]}, "properties": {"name": "Asmara"}}, {"type": "Feature", "geometry": {"type": "Point", "coordinates": [15.9999947, 45.8000067]}, "properties": {"name": "Zagreb"}}, {"type": "Feature", "geometry": {"type": "Point", "coordinates": [24.7280407, 59.4338774]}, "properties": {"name": "Tallinn"}}, {"type": "Feature", "geometry": {"type": "Point", "coordinates": [33.783302, -13.9832951]}, "properties": {"name": "Lilongwe"}}, {"type": "Feature", "geometry": {"type": "Point", "coordinates": [-90.5289114, 14.6230805]}, "properties": {"name": "Guatemala City"}}, {"type": "Feature", "geometry": {"type": "Point", "coordinates": [9.457965, 0.3853886]}, "properties": {"name": "Libreville"}}, {"type": "Feature", "geometry": {"type": "Point", "coordinates": [178.4417073, -18.1330159]}, "properties": {"name": "Suva"}}, {"type": "Feature", "geometry": {"type": "Point", "coordinates": [-71.61702619154609, -33.04773936269631]}, "properties": {"name": "Valpara\u00edso"}}, {"type": "Feature", "geometry": {"type": "Point", "coordinates": [-15.9753404, 18.086427]}, "properties": {"name": "Nouakchott"}}, {"type": "Feature", "geometry": {"type": "Point", "coordinates": [-8.001985, 12.6519605]}, "properties": {"name": "Bamako"}}, {"type": "Feature", "geometry": {"type": "Point", "coordinates": [35.5077624, 33.873921]}, "properties": {"name": "Beirut"}}, {"type": "Feature", "geometry": {"type": "Point", "coordinates": [44.7888496, 41.7269558]}, "properties": {"name": "Tbilisi"}}, {"type": "Feature", "geometry": {"type": "Point", "coordinates": [71.4277742, 51.1811253]}, "properties": {"name": "Nur-Sultan"}}, {"type": "Feature", "geometry": {"type": "Point", "coordinates": [102.59998, 17.9666927]}, "properties": {"name": "Vientiane"}}, {"type": "Feature", "geometry": {"type": "Point", "coordinates": [15.2827436, -4.2572399]}, "properties": {"name": "Brazzaville"}}, {"type": "Feature", "geometry": {"type": "Point", "coordinates": [-13.6821809, 9.5334687]}, "properties": {"name": "Conakry"}}, {"type": "Feature", "geometry": {"type": "Point", "coordinates": [-5.2755026, 6.818381]}, "properties": {"name": "Yamoussoukro"}}, {"type": "Feature", "geometry": {"type": "Point", "coordinates": [-75.7019612, 45.4186427]}, "properties": {"name": "Ottawa"}}, {"type": "Feature", "geometry": {"type": "Point", "coordinates": [20.4660448, 44.8205913]}, "properties": {"name": "Belgrade"}}, {"type": "Feature", "geometry": {"type": "Point", "coordinates": [114.9332841, 4.8833311]}, "properties": {"name": "Bandar Seri Begawan"}}, {"type": "Feature", "geometry": {"type": "Point", "coordinates": [-65.2595156, -19.0409708]}, "properties": {"name": "Sucre"}}, {"type": "Feature", "geometry": {"type": "Point", "coordinates": [-88.767073, 17.2520335]}, "properties": {"name": "Belmopan"}}, {"type": "Feature", "geometry": {"type": "Point", "coordinates": [18.5582881, 4.3666443]}, "properties": {"name": "Bangui"}}, {"type": "Feature", "geometry": {"type": "Point", "coordinates": [11.5147049, 3.8686465]}, "properties": {"name": "Yaound\u00e9"}}, {"type": "Feature", "geometry": {"type": "Point", "coordinates": [19.818883, 41.3275407]}, "properties": {"name": "Tirana"}}, {"type": "Feature", "geometry": {"type": "Point", "coordinates": [44.5116055, 40.1830966]}, "properties": {"name": "Yerevan"}}, {"type": "Feature", "geometry": {"type": "Point", "coordinates": [49.8602713, 40.3972179]}, "properties": {"name": "Baku"}}, {"type": "Feature", "geometry": {"type": "Point", "coordinates": [104.9146886, 11.551976]}, "properties": {"name": "Phnom Penh"}}, {"type": "Feature", "geometry": {"type": "Point", "coordinates": [-68.151931, -16.4960278]}, "properties": {"name": "La Paz"}}, {"type": "Feature", "geometry": {"type": "Point", "coordinates": [2.4043547908879517, 6.3629803922426715]}, "properties": {"name": "Cotonou"}}, {"type": "Feature", "geometry": {"type": "Point", "coordinates": [23.3147082, 42.6852953]}, "properties": {"name": "Sofia"}}, {"type": "Feature", "geometry": {"type": "Point", "coordinates": [27.5646813, 53.9019233]}, "properties": {"name": "Minsk"}}, {"type": "Feature", "geometry": {"type": "Point", "coordinates": [89.639014, 27.4729859]}, "properties": {"name": "Thimphu"}}, {"type": "Feature", "geometry": {"type": "Point", "coordinates": [25.9119478, -24.6463135]}, "properties": {"name": "Gaborone"}}, {"type": "Feature", "geometry": {"type": "Point", "coordinates": [149.1290262, -35.2830285]}, "properties": {"name": "Canberra"}}, {"type": "Feature", "geometry": {"type": "Point", "coordinates": [-1.5266696, 12.3722618]}, "properties": {"name": "Ouagadougou"}}, {"type": "Feature", "geometry": {"type": "Point", "coordinates": [18.3830017, 43.8500224]}, "properties": {"name": "Sarajevo"}}, {"type": "Feature", "geometry": {"type": "Point", "coordinates": [96.1166727, 19.7685029]}, "properties": {"name": "Naypyidaw"}}, {"type": "Feature", "geometry": {"type": "Point", "coordinates": [-175.2205645, -21.1385124]}, "properties": {"name": "Nuku'alofa"}}, {"type": "Feature", "geometry": {"type": "Point", "coordinates": [44.06531, 9.5600224]}, "properties": {"name": "Hargeisa"}}, {"type": "Feature", "geometry": {"type": "Point", "coordinates": [55.4499898, -4.6166317]}, "properties": {"name": "Victoria"}}, {"type": "Feature", "geometry": {"type": "Point", "coordinates": [6.729649806269851, 0.3374664069826239]}, "properties": {"name": "S\u00e3o Tom\u00e9"}}, {"type": "Feature", "geometry": {"type": "Point", "coordinates": [-171.76859897688345, -13.835714958212938]}, "properties": {"name": "Apia"}}, {"type": "Feature", "geometry": {"type": "Point", "coordinates": [14.5147107, 35.8997325]}, "properties": {"name": "Valletta"}}, {"type": "Feature", "geometry": {"type": "Point", "coordinates": [73.5089005260037, 4.17203699470936]}, "properties": {"name": "Mal\u00e9"}}, {"type": "Feature", "geometry": {"type": "Point", "coordinates": [35.2066259, 31.7784078]}, "properties": {"name": "Jerusalem"}}, {"type": "Feature", "geometry": {"type": "Point", "coordinates": [-23.5166889, 14.916698]}, "properties": {"name": "Praia"}}, {"type": "Feature", "geometry": {"type": "Point", "coordinates": [-77.3500438, 25.0833901]}, "properties": {"name": "Nassau"}}, {"type": "Feature", "geometry": {"type": "Point", "coordinates": [33.3666349, 35.1666765]}, "properties": {"name": "Nicosia"}}, {"type": "Feature", "geometry": {"type": "Point", "coordinates": [174.77720094690068, -41.2920679923151]}, "properties": {"name": "Wellington"}}, {"type": "Feature", "geometry": {"type": "Point", "coordinates": [105.8480683, 21.0352731]}, "properties": {"name": "Hanoi"}}, {"type": "Feature", "geometry": {"type": "Point", "coordinates": [32.8624458, 39.9291844]}, "properties": {"name": "Ankara"}}, {"type": "Feature", "geometry": {"type": "Point", "coordinates": [19.0813748, 47.5019522]}, "properties": {"name": "Budapest"}}, {"type": "Feature", "geometry": {"type": "Point", "coordinates": [44.2046475, 15.3566792]}, "properties": {"name": "Sanaa"}}, {"type": "Feature", "geometry": {"type": "Point", "coordinates": [26.0980008, 44.4353177]}, "properties": {"name": "Bucharest"}}, {"type": "Feature", "geometry": {"type": "Point", "coordinates": [36.29805, 33.5019799]}, "properties": {"name": "Damascus"}}, {"type": "Feature", "geometry": {"type": "Point", "coordinates": [-9.1468122, 38.7246687]}, "properties": {"name": "Lisbon"}}, {"type": "Feature", "geometry": {"type": "Point", "coordinates": [32.5322334, 15.5900241]}, "properties": {"name": "Khartoum"}}, {"type": "Feature", "geometry": {"type": "Point", "coordinates": [10.7480333, 59.9186361]}, "properties": {"name": "Oslo"}}, {"type": "Feature", "geometry": {"type": "Point", "coordinates": [21.005346737742283, 52.23087197353951]}, "properties": {"name": "Warsaw"}}, {"type": "Feature", "geometry": {"type": "Point", "coordinates": [125.7527449, 39.0213846]}, "properties": {"name": "Pyongyang"}}, {"type": "Feature", "geometry": {"type": "Point", "coordinates": [39.266396, -6.7980667]}, "properties": {"name": "Dar es Salaam"}}, {"type": "Feature", "geometry": {"type": "Point", "coordinates": [-6.256979517281132, 53.34673124898314]}, "properties": {"name": "Dublin"}}, {"type": "Feature", "geometry": {"type": "Point", "coordinates": [-10.7996604, 6.3145816]}, "properties": {"name": "Monrovia"}}, {"type": "Feature", "geometry": {"type": "Point", "coordinates": [101.68869929106194, 3.1397969439352504]}, "properties": {"name": "Kuala Lumpur"}}, {"type": "Feature", "geometry": {"type": "Point", "coordinates": [-82.366128, 23.1339047]}, "properties": {"name": "Havana"}}, {"type": "Feature", "geometry": {"type": "Point", "coordinates": [14.422939486203868, 50.0869665373215]}, "properties": {"name": "Prague"}}, {"type": "Feature", "geometry": {"type": "Point", "coordinates": [47.9763553, 29.3716635]}, "properties": {"name": "Kuwait City"}}, {"type": "Feature", "geometry": {"type": "Point", "coordinates": [-69.92974231579055, 18.470745058048376]}, "properties": {"name": "Santo Domingo"}}, {"type": "Feature", "geometry": {"type": "Point", "coordinates": [-0.2186616, 5.5519805]}, "properties": {"name": "Accra"}}, {"type": "Feature", "geometry": {"type": "Point", "coordinates": [13.1800118, 32.8925]}, "properties": {"name": "Tripoli"}}, {"type": "Feature", "geometry": {"type": "Point", "coordinates": [34.7680659, 32.0819373]}, "properties": {"name": "Tel Aviv"}}, {"type": "Feature", "geometry": {"type": "Point", "coordinates": [24.932456915043964, 60.16380384948568]}, "properties": {"name": "Helsinki"}}, {"type": "Feature", "geometry": {"type": "Point", "coordinates": [12.5615399, 55.68051]}, "properties": {"name": "K\u00f8benhavn"}}, {"type": "Feature", "geometry": {"type": "Point", "coordinates": [-4.020206835187587, 5.3231260722445715]}, "properties": {"name": "Abidjan"}}, {"type": "Feature", "geometry": {"type": "Point", "coordinates": [-47.9179981, -15.7813944]}, "properties": {"name": "Bras\u00edlia"}}, {"type": "Feature", "geometry": {"type": "Point", "coordinates": [4.3313707, 50.8352629]}, "properties": {"name": "Brussels"}}, {"type": "Feature", "geometry": {"type": "Point", "coordinates": [90.4066336, 23.7250056]}, "properties": {"name": "Dhaka"}}, {"type": "Feature", "geometry": {"type": "Point", "coordinates": [13.2324812, -8.8363403]}, "properties": {"name": "Luanda"}}, {"type": "Feature", "geometry": {"type": "Point", "coordinates": [3.0486067, 36.7650107]}, "properties": {"name": "Algiers"}}, {"type": "Feature", "geometry": {"type": "Point", "coordinates": [96.1647318, 16.7853]}, "properties": {"name": "Yangon"}}, {"type": "Feature", "geometry": {"type": "Point", "coordinates": [-122.39959956304557, 37.784262651527904]}, "properties": {"name": "San Francisco"}}, {"type": "Feature", "geometry": {"type": "Point", "coordinates": [-104.9859618, 39.7411339]}, "properties": {"name": "Denver"}}, {"type": "Feature", "geometry": {"type": "Point", "coordinates": [-95.34843625672217, 29.741272831862542]}, "properties": {"name": "Houston"}}, {"type": "Feature", "geometry": {"type": "Point", "coordinates": [-80.2260519, 25.7895566]}, "properties": {"name": "Miami"}}, {"type": "Feature", "geometry": {"type": "Point", "coordinates": [-84.36764186571386, 33.73945728378348]}, "properties": {"name": "Atlanta"}}, {"type": "Feature", "geometry": {"type": "Point", "coordinates": [-87.63523655322338, 41.847961283364114]}, "properties": {"name": "Chicago"}}, {"type": "Feature", "geometry": {"type": "Point", "coordinates": [-66.9189831, 10.5029444]}, "properties": {"name": "Caracas"}}, {"type": "Feature", "geometry": {"type": "Point", "coordinates": [30.5146821, 50.4353132]}, "properties": {"name": "Kyiv"}}, {"type": "Feature", "geometry": {"type": "Point", "coordinates": [55.28694561354246, 25.21491189371225]}, "properties": {"name": "Dubai"}}, {"type": "Feature", "geometry": {"type": "Point", "coordinates": [69.26882294266261, 41.30382822156198]}, "properties": {"name": "Tashkent"}}, {"type": "Feature", "geometry": {"type": "Point", "coordinates": [-3.6852975, 40.4019721]}, "properties": {"name": "Madrid"}}, {"type": "Feature", "geometry": {"type": "Point", "coordinates": [6.140028, 46.2100075]}, "properties": {"name": "Geneva"}}, {"type": "Feature", "geometry": {"type": "Point", "coordinates": [18.066300168534497, 59.324127204007475]}, "properties": {"name": "Stockholm"}}, {"type": "Feature", "geometry": {"type": "Point", "coordinates": [100.5146988, 13.7519451]}, "properties": {"name": "Bangkok"}}, {"type": "Feature", "geometry": {"type": "Point", "coordinates": [-77.052008, -12.0460668]}, "properties": {"name": "Lima"}}, {"type": "Feature", "geometry": {"type": "Point", "coordinates": [-17.475076, 14.7177776]}, "properties": {"name": "Dakar"}}, {"type": "Feature", "geometry": {"type": "Point", "coordinates": [28.0280639, -26.1680989]}, "properties": {"name": "Johannesburg"}}, {"type": "Feature", "geometry": {"type": "Point", "coordinates": [4.9146943, 52.3519145]}, "properties": {"name": "Amsterdam"}}, {"type": "Feature", "geometry": {"type": "Point", "coordinates": [-7.6183133, 33.6019221]}, "properties": {"name": "Casablanca"}}, {"type": "Feature", "geometry": {"type": "Point", "coordinates": [126.9977851, 37.568295]}, "properties": {"name": "Seoul"}}, {"type": "Feature", "geometry": {"type": "Point", "coordinates": [120.9802713, 14.6061048]}, "properties": {"name": "Manila"}}, {"type": "Feature", "geometry": {"type": "Point", "coordinates": [-100.3319306, 25.671941]}, "properties": {"name": "Monterrey"}}, {"type": "Feature", "geometry": {"type": "Point", "coordinates": [13.3996028, 52.5237645]}, "properties": {"name": "Berlin"}}, {"type": "Feature", "geometry": {"type": "Point", "coordinates": [87.5730598, 43.8069581]}, "properties": {"name": "\u00dcr\u00fcmqi"}}, {"type": "Feature", "geometry": {"type": "Point", "coordinates": [104.0680736, 30.6719459]}, "properties": {"name": "Chengdu"}}, {"type": "Feature", "geometry": {"type": "Point", "coordinates": [135.50375419006232, 34.691095244477914]}, "properties": {"name": "\u014csaka"}}, {"type": "Feature", "geometry": {"type": "Point", "coordinates": [15.313026, -4.3277782]}, "properties": {"name": "Kinshasa"}}, {"type": "Feature", "geometry": {"type": "Point", "coordinates": [77.19998, 28.600023]}, "properties": {"name": "New Delhi"}}, {"type": "Feature", "geometry": {"type": "Point", "coordinates": [77.5580639, 12.971941]}, "properties": {"name": "Bengaluru"}}, {"type": "Feature", "geometry": {"type": "Point", "coordinates": [23.7313752, 37.9852721]}, "properties": {"name": "Athens"}}, {"type": "Feature", "geometry": {"type": "Point", "coordinates": [44.3919229, 33.3405944]}, "properties": {"name": "Baghdad"}}, {"type": "Feature", "geometry": {"type": "Point", "coordinates": [38.6980586, 9.0352562]}, "properties": {"name": "Addis Ababa"}}, {"type": "Feature", "geometry": {"type": "Point", "coordinates": [51.4223982, 35.6738886]}, "properties": {"name": "Tehran"}}, {"type": "Feature", "geometry": {"type": "Point", "coordinates": [-123.1235901, 49.2753624]}, "properties": {"name": "Vancouver"}}, {"type": "Feature", "geometry": {"type": "Point", "coordinates": [-79.38945855491194, 43.66464454743429]}, "properties": {"name": "Toronto"}}, {"type": "Feature", "geometry": {"type": "Point", "coordinates": [-58.43251268766426, -34.61071459139255]}, "properties": {"name": "Buenos Aires"}}, {"type": "Feature", "geometry": {"type": "Point", "coordinates": [69.1813142, 34.5186361]}, "properties": {"name": "Kabul"}}, {"type": "Feature", "geometry": {"type": "Point", "coordinates": [16.3646931, 48.2019611]}, "properties": {"name": "Vienna"}}, {"type": "Feature", "geometry": {"type": "Point", "coordinates": [144.9730704, -37.8180855]}, "properties": {"name": "Melbourne"}}, {"type": "Feature", "geometry": {"type": "Point", "coordinates": [121.5683333, 25.0358333]}, "properties": {"name": "Taipei"}}, {"type": "Feature", "geometry": {"type": "Point", "coordinates": [174.763027, -36.8480549]}, "properties": {"name": "Auckland"}}, {"type": "Feature", "geometry": {"type": "Point", "coordinates": [-118.23198647223317, 34.049219260337075]}, "properties": {"name": "Los Angeles"}}, {"type": "Feature", "geometry": {"type": "Point", "coordinates": [-77.0113644, 38.9014952]}, "properties": {"name": "Washington,  D.C."}}, {"type": "Feature", "geometry": {"type": "Point", "coordinates": [-73.99571754361698, 40.72156174972766]}, "properties": {"name": "New York"}}, {"type": "Feature", "geometry": {"type": "Point", "coordinates": [-0.1186677, 51.5019406]}, "properties": {"name": "London"}}, {"type": "Feature", "geometry": {"type": "Point", "coordinates": [28.97427681675554, 41.01760173507249]}, "properties": {"name": "Istanbul"}}, {"type": "Feature", "geometry": {"type": "Point", "coordinates": [46.720487024887696, 24.634497474837755]}, "properties": {"name": "Riyadh"}}, {"type": "Feature", "geometry": {"type": "Point", "coordinates": [18.4330423, -33.9180651]}, "properties": {"name": "Cape Town"}}, {"type": "Feature", "geometry": {"type": "Point", "coordinates": [37.613577, 55.75411]}, "properties": {"name": "Moscow"}}, {"type": "Feature", "geometry": {"type": "Point", "coordinates": [-99.1329341, 19.4443883]}, "properties": {"name": "Mexico City"}}, {"type": "Feature", "geometry": {"type": "Point", "coordinates": [3.3895852, 6.4452075]}, "properties": {"name": "Lagos"}}, {"type": "Feature", "geometry": {"type": "Point", "coordinates": [12.4813126, 41.8979015]}, "properties": {"name": "Rome"}}, {"type": "Feature", "geometry": {"type": "Point", "coordinates": [116.39420089260611, 39.901720309862675]}, "properties": {"name": "Beijing"}}, {"type": "Feature", "geometry": {"type": "Point", "coordinates": [36.814711, -1.2814009]}, "properties": {"name": "Nairobi"}}, {"type": "Feature", "geometry": {"type": "Point", "coordinates": [106.8274918, -6.1724718]}, "properties": {"name": "Jakarta"}}, {"type": "Feature", "geometry": {"type": "Point", "coordinates": [-74.0852898, 4.5983694]}, "properties": {"name": "Bogota"}}, {"type": "Feature", "geometry": {"type": "Point", "coordinates": [31.2480224, 30.0519062]}, "properties": {"name": "Cairo"}}, {"type": "Feature", "geometry": {"type": "Point", "coordinates": [121.4345588, 31.2183983]}, "properties": {"name": "Shanghai"}}, {"type": "Feature", "geometry": {"type": "Point", "coordinates": [139.7494616, 35.6869628]}, "properties": {"name": "Tokyo"}}, {"type": "Feature", "geometry": {"type": "Point", "coordinates": [72.8758393972653, 19.06840847529168]}, "properties": {"name": "Mumbai"}}, {"type": "Feature", "geometry": {"type": "Point", "coordinates": [2.3529924615392135, 48.85809231626911]}, "properties": {"name": "Paris"}}, {"type": "Feature", "geometry": {"type": "Point", "coordinates": [-70.65050407285783, -33.44020506918074]}, "properties": {"name": "Santiago"}}, {"type": "Feature", "geometry": {"type": "Point", "coordinates": [88.36912550443886, 22.569578883795778]}, "properties": {"name": "Kolkata"}}, {"type": "Feature", "geometry": {"type": "Point", "coordinates": [-43.212117466834385, -22.907308056882364]}, "properties": {"name": "Rio de Janeiro"}}, {"type": "Feature", "geometry": {"type": "Point", "coordinates": [-46.6269658, -23.5567337]}, "properties": {"name": "S\u00e3o Paulo"}}, {"type": "Feature", "geometry": {"type": "Point", "coordinates": [151.2125477744749, -33.87137339218338]}, "properties": {"name": "Sydney"}}, {"type": "Feature", "geometry": {"type": "Point", "coordinates": [103.8538748, 1.2949793]}, "properties": {"name": "Singapore"}}, {"type": "Feature", "geometry": {"type": "Point", "coordinates": [114.1830635, 22.3069268]}, "properties": {"name": "Hong Kong"}}]}